{
  "type": "FeatureCollection",
  "features": [
    {
      "type": "Feature",
      "properties": {
        "norad_id": 31175,
        "name": "FENGYUN 1C DEB",
        "group": "fengyun-1c-debris",
        "lat": -53.63988534470167,
        "lon": 163.09981530892043,
        "alt_km": 701.3622949459823,
        "timestamp": "2025-12-20T09:36:01.926242+00:00",
        "meta_object_name": "FENGYUN 1C DEB",
        "meta_object_id": "1999-025BJD",
        "meta_epoch": "2025-12-19T17:44:11.172480",
        "meta_mean_motion": 14.6030748,
        "meta_eccentricity": 0.00743604,
        "meta_inclination": 98.3966,
        "meta_ra_of_asc_node": 354.0042,
        "meta_arg_of_pericenter": 143.5954,
        "meta_mean_anomaly": 217.0335,
        "meta_ephemeris_type": 0,
        "meta_classification_type": "U",
        "meta_norad_cat_id": 31175,
        "meta_element_set_no": 999,
        "meta_rev_at_epoch": 65741,
        "meta_bstar": 0.0024269531,
        "meta_mean_motion_dot": 0.00012157,
        "meta_mean_motion_ddot": 0,
        "tle_line1": "1 31175U 99025BJD 25353.73901820  .00012157  00000+0  24270-2 0  9992",
        "tle_line2": "2 31175  98.3966 354.0042 0074360 143.5954 217.0335 14.60307480657416"
      },
      "geometry": {
        "type": "Point",
        "coordinates": [
          163.09981530892043,
          -53.63988534470167
        ]
      }
    },
    {
      "type": "Feature",
      "properties": {
        "norad_id": 31177,
        "name": "FENGYUN 1C DEB",
        "group": "fengyun-1c-debris",
        "lat": 46.13495571757382,
        "lon": -102.15192524141143,
        "alt_km": 1105.3793132198307,
        "timestamp": "2025-12-20T09:36:01.926252+00:00",
        "meta_object_name": "FENGYUN 1C DEB",
        "meta_object_id": "1999-025BJF",
        "meta_epoch": "2025-12-19T17:38:35.721888",
        "meta_mean_motion": 13.62390825,
        "meta_eccentricity": 0.03085768,
        "meta_inclination": 98.7594,
        "meta_ra_of_asc_node": 266.4801,
        "meta_arg_of_pericenter": 295.8584,
        "meta_mean_anomaly": 88.4957,
        "meta_ephemeris_type": 0,
        "meta_classification_type": "U",
        "meta_norad_cat_id": 31177,
        "meta_element_set_no": 999,
        "meta_rev_at_epoch": 66307,
        "meta_bstar": 0.0031990454,
        "meta_mean_motion_dot": 3.374e-05,
        "meta_mean_motion_ddot": 0,
        "tle_line1": "1 31177U 99025BJF 25353.73513567  .00003374  00000+0  31990-2 0  9999",
        "tle_line2": "2 31177  98.7594 266.4801 0308576 295.8584  88.4957 13.62390825663072"
      },
      "geometry": {
        "type": "Point",
        "coordinates": [
          -102.15192524141143,
          46.13495571757382
        ]
      }
    },
    {
      "type": "Feature",
      "properties": {
        "norad_id": 31178,
        "name": "FENGYUN 1C DEB",
        "group": "fengyun-1c-debris",
        "lat": -31.039099150221,
        "lon": 3.028724890740375,
        "alt_km": 748.6891585834355,
        "timestamp": "2025-12-20T09:36:01.926262+00:00",
        "meta_object_name": "FENGYUN 1C DEB",
        "meta_object_id": "1999-025BJG",
        "meta_epoch": "2025-12-18T07:05:42.469152",
        "meta_mean_motion": 14.22259738,
        "meta_eccentricity": 0.01258717,
        "meta_inclination": 99.5125,
        "meta_ra_of_asc_node": 354.9683,
        "meta_arg_of_pericenter": 299.9049,
        "meta_mean_anomaly": 58.9671,
        "meta_ephemeris_type": 0,
        "meta_classification_type": "U",
        "meta_norad_cat_id": 31178,
        "meta_element_set_no": 999,
        "meta_rev_at_epoch": 95894,
        "meta_bstar": 0.0016924306,
        "meta_mean_motion_dot": 4.025e-05,
        "meta_mean_motion_ddot": 0,
        "tle_line1": "1 31178U 99025BJG 25352.29563043  .00004025  00000+0  16924-2 0  9998",
        "tle_line2": "2 31178  99.5125 354.9683 0125871 299.9049  58.9671 14.22259738958941"
      },
      "geometry": {
        "type": "Point",
        "coordinates": [
          3.028724890740375,
          -31.039099150221
        ]
      }
    },
    {
      "type": "Feature",
      "properties": {
        "norad_id": 31179,
        "name": "FENGYUN 1C DEB",
        "group": "fengyun-1c-debris",
        "lat": 63.252412535644815,
        "lon": -4.247253189789367,
        "alt_km": 898.1768204677273,
        "timestamp": "2025-12-20T09:36:01.926272+00:00",
        "meta_object_name": "FENGYUN 1C DEB",
        "meta_object_id": "1999-025BJH",
        "meta_epoch": "2025-12-18T07:16:13.358496",
        "meta_mean_motion": 13.91941548,
        "meta_eccentricity": 0.02152306,
        "meta_inclination": 99.0195,
        "meta_ra_of_asc_node": 12.0814,
        "meta_arg_of_pericenter": 345.6132,
        "meta_mean_anomaly": 13.8961,
        "meta_ephemeris_type": 0,
        "meta_classification_type": "U",
        "meta_norad_cat_id": 31179,
        "meta_element_set_no": 999,
        "meta_rev_at_epoch": 62018,
        "meta_bstar": 0.00082156675,
        "meta_mean_motion_dot": 1.222e-05,
        "meta_mean_motion_ddot": 0,
        "tle_line1": "1 31179U 99025BJH 25352.30293239  .00001222  00000+0  82157-3 0  9996",
        "tle_line2": "2 31179  99.0195  12.0814 0215230 345.6132  13.8961 13.91941548620189"
      },
      "geometry": {
        "type": "Point",
        "coordinates": [
          -4.247253189789367,
          63.252412535644815
        ]
      }
    },
    {
      "type": "Feature",
      "properties": {
        "norad_id": 31180,
        "name": "FENGYUN 1C DEB",
        "group": "fengyun-1c-debris",
        "lat": -66.88647701619546,
        "lon": 148.01805839667225,
        "alt_km": 1106.2262326948185,
        "timestamp": "2025-12-20T09:36:01.926283+00:00",
        "meta_object_name": "FENGYUN 1C DEB",
        "meta_object_id": "1999-025BJJ",
        "meta_epoch": "2025-12-19T14:56:31.181568",
        "meta_mean_motion": 13.70348103,
        "meta_eccentricity": 0.04981204,
        "meta_inclination": 99.218,
        "meta_ra_of_asc_node": 124.9073,
        "meta_arg_of_pericenter": 42.0019,
        "meta_mean_anomaly": 21.5371,
        "meta_ephemeris_type": 0,
        "meta_classification_type": "U",
        "meta_norad_cat_id": 31180,
        "meta_element_set_no": 999,
        "meta_rev_at_epoch": 64161,
        "meta_bstar": 0.00013236074,
        "meta_mean_motion_dot": 2.38e-06,
        "meta_mean_motion_ddot": 0,
        "tle_line1": "1 31180U 99025BJJ 25353.62258312  .00000238  00000+0  13236-3 0  9995",
        "tle_line2": "2 31180  99.2180 124.9073 0498120  42.0019  21.5371 13.70348103641617"
      },
      "geometry": {
        "type": "Point",
        "coordinates": [
          148.01805839667225,
          -66.88647701619546
        ]
      }
    },
    {
      "type": "Feature",
      "properties": {
        "norad_id": 31181,
        "name": "FENGYUN 1C DEB",
        "group": "fengyun-1c-debris",
        "lat": -67.18409278367623,
        "lon": -174.75950948000596,
        "alt_km": 893.4032506677213,
        "timestamp": "2025-12-20T09:36:01.926293+00:00",
        "meta_object_name": "FENGYUN 1C DEB",
        "meta_object_id": "1999-025BJK",
        "meta_epoch": "2025-12-16T00:49:27.083136",
        "meta_mean_motion": 14.11897653,
        "meta_eccentricity": 0.00479368,
        "meta_inclination": 98.7771,
        "meta_ra_of_asc_node": 22.5146,
        "meta_arg_of_pericenter": 65.4183,
        "meta_mean_anomaly": 325.7974,
        "meta_ephemeris_type": 0,
        "meta_classification_type": "U",
        "meta_norad_cat_id": 31181,
        "meta_element_set_no": 999,
        "meta_rev_at_epoch": 95814,
        "meta_bstar": 0.00086139696,
        "meta_mean_motion_dot": 1.548e-05,
        "meta_mean_motion_ddot": 0,
        "tle_line1": "1 31181U 99025BJK 25350.03434124  .00001548  00000+0  86140-3 0  9994",
        "tle_line2": "2 31181  98.7771  22.5146 0047936  65.4183 325.7974 14.11897653958140"
      },
      "geometry": {
        "type": "Point",
        "coordinates": [
          -174.75950948000596,
          -67.18409278367623
        ]
      }
    },
    {
      "type": "Feature",
      "properties": {
        "norad_id": 31182,
        "name": "FENGYUN 1C DEB",
        "group": "fengyun-1c-debris",
        "lat": 63.91329215949855,
        "lon": -178.7542526418051,
        "alt_km": 820.581513773207,
        "timestamp": "2025-12-20T09:36:01.926304+00:00",
        "meta_object_name": "FENGYUN 1C DEB",
        "meta_object_id": "1999-025BJL",
        "meta_epoch": "2025-12-17T10:29:25.287072",
        "meta_mean_motion": 14.14559703,
        "meta_eccentricity": 0.00234665,
        "meta_inclination": 98.6819,
        "meta_ra_of_asc_node": 340.1808,
        "meta_arg_of_pericenter": 123.4909,
        "meta_mean_anomaly": 31.1675,
        "meta_ephemeris_type": 0,
        "meta_classification_type": "U",
        "meta_norad_cat_id": 31182,
        "meta_element_set_no": 999,
        "meta_rev_at_epoch": 96147,
        "meta_bstar": 0.00031818865,
        "meta_mean_motion_dot": 5.7e-06,
        "meta_mean_motion_ddot": 0,
        "tle_line1": "1 31182U 99025BJL 25351.43709823  .00000570  00000+0  31819-3 0  9998",
        "tle_line2": "2 31182  98.6819 340.1808 0023466 123.4909  31.1675 14.14559703961470"
      },
      "geometry": {
        "type": "Point",
        "coordinates": [
          -178.7542526418051,
          63.91329215949855
        ]
      }
    }
  ]
}